IRIDIUM 119             
1 42959U 17061E   23365.50817870  .00000328  00000+0  10994-3 0  9997
2 42959  86.3960  40.8044 0002403  93.0891 267.0580 14.34219001326006
IRIDIUM 107             
1 42960U 17061F   23365.59697698 -.00000050  00000+0 -25016-4 0  9998
2 42960  86.3957  40.7826 0002074  84.1214 276.0219 14.34216686326022
IRIDIUM 132             
1 42961U 17061G   23365.60331649  .00000352  00000+0  11872-3 0  9999
2 42961  86.3960  40.7659 0002305  85.6759 274.4700 14.34218043326024
IRIDIUM 136             
1 42962U 17061H   23365.63502917  .00000330  00000+0  11089-3 0  9997
2 42962  86.3959  40.7552 0002397  94.5963 265.5506 14.34219674326040
IRIDIUM 139             
1 42963U 17061J   23365.64137204  .00000204  00000+0  65911-4 0  9996
2 42963  86.3961  40.8003 0002197  88.1347 272.0100 14.34218369326053
IRIDIUM 125             
1 42964U 17061K   23365.62868830  .00000323  00000+0  10817-3 0  9997
2 42964  86.3964  40.8500 0002498  87.3548 272.7933 14.34216258326064
IRIDIUM 135             
1 43070U 17083A   23365.88188691 -.00000726  00000+0 -26647-3 0  9995
2 43070  86.3967 337.4488 0001841  85.0804 275.0602 14.34216356315399
IRIDIUM 138             
1 43071U 17083B   23365.90726151  .00000367  00000+0  12391-3 0  9998
2 43071  86.3964 337.1761 0002470  85.7235 274.4243 14.34216142315388
